K09B81Y 16.6   0.15 K1014 190.23772  302.08189   81.81869   24.08904  0.1227490  0.37589863   1.9014674  3 E2010-C46    45   2 2005-2009 0.50 M-v 38h MPC        0000          2009 BY81          20090202
K09BA5F 15.4   0.15 K1014 278.83445  349.66281  307.89837    8.31699  0.1204824  0.18832907   3.0143324  4 E2010-C46    25   3 2001-2010 0.50 M-v 38h MPC        0000          2009 BF105         20100209
K09BB2F 15.8   0.15 K1014  32.98318  220.81866  299.55590    8.25358  0.0672549  0.17739543   3.1369512  2 E2010-C46    26   3 2004-2009 0.26 M-v 38h MPC        0000          2009 BF112         20090401
K09BC5Z 17.3   0.15 K1014 101.53581  116.49435  323.17828    1.34308  0.2481533  0.18905706   3.0065893  2 E2010-C46    24   3 2004-2009 0.35 M-v 38h MPC        0000          2009 BZ125         20090316
K09D17R 16.0   0.15 K1014 126.19877  114.03610  277.53639   11.57450  0.0941825  0.22066160   2.7121781  2 E2010-C46    41   3 2003-2009 0.44 M-v 38h MPC        0000          2009 DR17          20090221
K09D35L 16.4   0.15 K1014  85.98070  306.24257  177.23423   16.49055  0.3047500  0.17545873   3.1599926  3 E2010-C46    25   2 2003-2009 0.34 M-v 38h MPC        0000          2009 DL35          20090325
K09D47E 18.7   0.15 K1014 340.68299   41.80023   29.88328   20.06206  0.2756517  0.85938884   1.0956611  3 E2010-C46   182   2 2009-2010 0.40 M-v 3Eh MPC        0003          2009 DE47          20100212
K09D60T 17.3   0.15 K1014 205.81920  285.51973  112.21962    5.50505  0.0754996  0.25641228   2.4538245  1 E2010-C46    26   4 2003-2009 0.33 M-v 38h MPC        0000          2009 DT60          20090329
K09D86S 17.6   0.15 K1014  36.62524  288.17142  303.71170    2.34230  0.1468459  0.27635366   2.3343138  1 E2010-C46    34   5 2002-2009 0.52 M-v 38h MPC        0000          2009 DS86          20090326
K09D88Z 15.3   0.15 K1014  24.33654  304.85487  260.94426   25.25473  0.3027004  0.17494141   3.1662191  3 E2010-C46    28   2 2008-2009 0.53 M-v 38h MPC        0000          2009 DZ88          20090228
K09DD9C 16.4   0.15 K1014 268.42756  159.26011  164.52402    7.94072  0.0468865  0.20575062   2.8416808  3 E2010-C46    30   3 2005-2009 0.35 M-v 38h MPC        0000          2009 DC139         20090402
K09F38Y 17.2   0.15 K1014  65.40169   77.71016  115.81722    3.24420  0.1099111  0.26763068   2.3847643  4 E2010-C46    26   2 2007-2009 0.46 M-v 38h MPC        0000          2009 FY38          20090526
K09SD8Z 16.2   0.15 K1014 337.62097  241.70919  215.18056    7.67368  0.1212174  0.21661721   2.7458327  1 E2010-C46    63   5 2000-2010 0.51 M-v 38h MPC        0000          2009 SZ138         20100208
K09SG1D 16.5   0.15 K1014  46.15740  154.64979  200.86465    5.81459  0.2569445  0.23084428   2.6318227  0 E2010-C46    79   4 1992-2010 0.48 M-v 38h MPC        1000          2009 SD161         20100207
K09U26W 12.3   0.15 K1014  19.16992  169.53149  230.79687   27.73472  0.0875480  0.08317464   5.1976708  2 E2010-C46    99   3 2004-2010 0.59 M-v 38h MPC        0009          2009 UW26          20100207
K09UD6Z 14.7   0.15 K1014 304.74962  232.00894  259.70772   13.67687  0.0866483  0.17469217   3.1692300  1 E2010-C46    70   5 2002-2010 0.61 M-v 38h MPC        1000          2009 UZ136         20100210
K09UD7F 15.0   0.15 K1014 349.95058  154.24586  286.99462   11.42127  0.1507494  0.17036360   3.2226874  1 E2010-C46    62   5 2002-2010 0.57 M-v 38h MPC        1000          2009 UF137         20100209
K09V41K 16.5   0.15 K1014  21.42238  310.41811   85.47851    4.49139  0.2257112  0.23253481   2.6190517  1 E2010-C46    87   4 2000-2010 0.50 M-v 38h MPC        0000          2009 VK41          20100209
K09V79J 16.9   0.15 K1014  33.79174   20.75114  349.41171    7.21051  0.2794121  0.21450838   2.7637995  4 E2010-C46    33   2 1995-2010 0.71 M-v 38h MPC        0000          2009 VJ79          20100207
K09V93A 15.5   0.15 K1014 339.35042   24.78736   68.23030    4.01113  0.1678342  0.12606781   3.9391262  0 E2010-C46    52   6 2000-2010 0.50 M-v 38h MPC        0008          2009 VA93          20100207
K09W83X 17.3   0.15 K1014  93.75316  285.26789   26.44077    7.21118  0.2461834  0.30853945   2.1690135  1 E2010-C46    38   5 1996-2009 0.53 M-v 38h MPC        0007          2009 WX83          20091127
K09WF2V 15.5   0.15 K1014 303.99081  105.29991   35.59067   15.81558  0.1608246  0.17445817   3.1720632  1 E2010-C46    31   3 2003-2010 0.42 M-v 38h MPC        0000          2009 WV152         20100208
K09WK3R 16.4   0.15 K1014  54.06637  159.80958  212.10866    1.50006  0.1107058  0.20008727   2.8950522  0 E2010-C46    57   8 1996-2009 0.49 M-v 38h MPC        1000          2009 WR203         20091215
K09X18A 16.5   0.15 K1014 327.42830   58.85643   94.90725    9.21953  0.1220077  0.23673261   2.5879984  3 E2010-C46    51   3 2002-2010 0.63 M-v 38h MPC        0000          2009 XA18          20100209
K09Y15J 15.8   0.15 K1014  58.36575  284.98092  148.45706   22.35537  0.0356747  0.23346339   2.6121023  1 E2010-C46    55   6 1999-2010 0.53 M-v 38h MPC        1000          2009 YJ15          20100207
K09Y16H 17.5   0.15 K1014 339.53143  226.44282  290.19023    1.47730  0.1548119  0.25964817   2.4333946  1 E2010-C46    48   5 2001-2010 0.37 M-v 38h MPC        1000          2009 YH16          20100206
K09Y19Y 16.4   0.15 K1014 312.18251  246.64090  291.68410    5.14287  0.1366251  0.21894055   2.7263728  1 E2010-C46    55   6 2000-2010 0.54 M-v 38h MPC        1000          2009 YY19          20100209
K10A38V 17.0   0.15 K1014  46.14384  107.79332  319.83285    6.18009  0.1593704  0.29511879   2.2342828  1 E2010-C46    39   3 2000-2010 0.43 M-v 38h MPC        0000          2010 AV38          20100209
K10A39M 16.1   0.15 K1014  15.89978  148.24864  310.41156   32.28300  0.1586782  0.23273447   2.6175536  3 E2010-C46    51   3 1993-2010 0.52 M-v 38h MPC        0000          2010 AM39          20100211
K10A44B 15.7   0.15 K1014  78.90301  103.26204  290.82107   12.00041  0.0288470  0.20644659   2.8352906  1 E2010-C46    41   4 2003-2010 0.45 M-v 38h MPC        0000          2010 AB44          20100209
K10A53K 16.7   0.15 K1014 292.31400  272.96634  298.94604   20.93466  0.1478130  0.28985286   2.2612625  4 E2010-C46    25   2 2003-2010 0.51 M-v 38h MPC        0000          2010 AK53          20100209
K10A76T 14.7   0.15 K1014 337.80211  182.97838  316.08181   24.55721  0.0205891  0.17456060   3.1708222  1 E2010-C46    45   4 2002-2010 0.55 M-v 38h MPC        0000          2010 AT76          20100202
K10B01M 16.4   0.15 K1014 307.21106   64.42111  112.84605    7.83501  0.1328997  0.25896412   2.4376779  1 E2010-C46    47   6 2001-2010 0.55 M-v 38h MPC        0000          2010 BM1           20100209
K09SH1V 19.6   0.15 K1014   6.39492  233.22844  209.35088   12.98070  0.5892232  0.23074514   2.6325765  4 E2010-C46   126   1  134 days 0.39 M-v 3Eh MPC        0004          2009 SV171         20100209
K09U03N 18.3   0.15 K1014 354.61446  338.79448  142.02025   37.41600  0.5761795  0.27738700   2.3285129  3 E2010-C46   118   1  115 days 0.35 M-v 3Eh MPC        8003          2009 UN3           20100211
K10C00A 24.6   0.15 K1014 297.67686   93.03486  134.66831    9.88278  0.4582411  0.65329461   1.3154166  8 E2010-C46    38   1    6 days 0.64 M-v 3Eh MPC        0003          2010 CA            20100211
K10C00T 20.3   0.15 K1014 244.44441  104.27233  176.10563   19.76327  0.6574800  1.17779139   0.8880222  9 E2010-C46     6   1    3 days 0.29 M-v 3Eh MPC        0002          2010 CT            20100211
K10C01J 24.2   0.15 K1014  11.10852  281.56964  138.26133    4.07093  0.4959343  0.50308261   1.5657047  8 E2010-C46    13   1    2 days 0.29 M-v 3Eh MPC        0003          2010 CJ1           20100211
K10C01K 23.9   0.15 K1014 274.52860   77.82768  141.45757   27.30099  0.2155821  0.80236199   1.1469799  7 E2010-C46    18   1    3 days 0.38 M-v 3Eh MPC        0003          2010 CK1           20100212
K10C01N 19.0   0.15 K1014  17.23647  190.36353  217.77861   20.21238  0.4150475  0.57430908   1.4334160  9 E2010-C46    12   1    2 days 0.42 M-v 3Eh MPC        0003          2010 CN1           20100211
K10C01R 18.3   0.15 K1014  19.07514   68.93831  314.39497   27.24804  0.7542298  0.58609692   1.4141314  9 E2010-C46    12   1    2 days 0.27 M-v 3Eh MPC        0003          2010 CR1           20100211
K10C05R 22.3   0.15 K1014  36.35830   64.07452  325.55602    2.06875  0.4936895  0.44984414   1.6869207  9 E2010-C46    10   1    2 days 0.37 M-v 3Eh MPC        0003          2010 CR5           20100211
K02EG3P 17.7   0.15 K0237 322.95567   49.32506  153.46384    4.73397  0.2063908  0.26388201   2.4072962    E2010-C46     9   1    8 days 0.17         MPC        2000          2002 EP163         20020313
K02M05Y 16.6   0.15 K0275   2.72126    0.07451  291.77379    9.03790  0.1632677  0.18148350   3.0896642    E2010-C46    18   1   72 days 0.24         MPC        2000          2002 MY5           20020828
K02N73A 17.7   0.15 K027P 317.26638  254.93524  120.56157    7.04938  0.3168356  0.24068966   2.5595548    E2010-C46    14   1   56 days 0.33         MPC        2000          2002 NA73          20020829
K04Q29B 16.9   0.15 K048N  42.70947  232.33316   92.33011   14.12443  0.0648191  0.18818934   3.0158243    E2010-C46    18   1   25 days 0.15         MPC        2000          2004 QB29          20040914
K09V01S 17.0   0.15 K09CF 356.14961  269.50943  178.06667   20.42578  0.3013329  0.27553614   2.3389288    E2010-C46    31   1  116 days 0.56         MPC        0007          2009 VS1           20100212
K09V78A 17.3   0.15 K09CF 342.34184  262.59571  198.35092   14.25201  0.3522542  0.21729273   2.7401389    E2010-C46    22   1   90 days 0.55         MPC        0000          2009 VA78          20100207
K09V78M 16.1   0.15 K09CF  16.25462  285.14407  112.25528    8.58495  0.2241636  0.18707920   3.0277432    E2010-C46    16   1   93 days 0.45         MPC        0000          2009 VM78          20100210
